[{"OBJECT_NAME":"STARLINK-5258","OBJECT_ID":"2022-141AQ","EPOCH":"2026-03-09T22:25:07.852224","MEAN_MOTION":15.08839014,"ECCENTRICITY":0.00013987,"INCLINATION":53.2189,"RA_OF_ASC_NODE":353.1029,"ARG_OF_PERICENTER":102.7806,"MEAN_ANOMALY":257.3342,"EPHEMERIS_TYPE":0,"CLASSIFICATION_TYPE":"U","NORAD_CAT_ID":54195,"ELEMENT_SET_NO":999,"REV_AT_EPOCH":18603,"BSTAR":-2.4793087e-5,"MEAN_MOTION_DOT":-6.82e-6,"MEAN_MOTION_DDOT":0},{"OBJECT_NAME":"LEMUR-2-ESPERANZA","OBJECT_ID":"2025-061B","EPOCH":"2026-03-09T20:59:51.017856","MEAN_MOTION":15.12770808,"ECCENTRICITY":0.00169494,"INCLINATION":97.5568,"RA_OF_ASC_NODE":45.1407,"ARG_OF_PERICENTER":244.877,"MEAN_ANOMALY":115.0702,"EPHEMERIS_TYPE":0,"CLASSIFICATION_TYPE":"U","NORAD_CAT_ID":63352,"ELEMENT_SET_NO":999,"REV_AT_EPOCH":5257,"BSTAR":0.00034972806,"MEAN_MOTION_DOT":6.09e-5,"MEAN_MOTION_DDOT":0}]
